CCSDS_OMM_VERS = 2.0
CREATION_DATE  = 
ORIGINATOR     = 

OBJECT_NAME    = H-2A R/B
OBJECT_ID      = 2012-025E
CENTER_NAME    = EARTH
REF_FRAME      = TEME
TIME_SYSTEM    = UTC
MEAN_ELEMENT_THEORY = SGP/SGP4

EPOCH          = 2025-11-03T20:49:22.609920
MEAN_MOTION    = 14.94018662
ECCENTRICITY   = .0045821
INCLINATION    = 98.4526
RA_OF_ASC_NODE = 260.1266
ARG_OF_PERICENTER = 6.0472
MEAN_ANOMALY   = 354.1289

EPHEMERIS_TYPE = 0
CLASSIFICATION_TYPE = U
NORAD_CAT_ID   = 38341
ELEMENT_SET_NO = 999
REV_AT_EPOCH   = 72942
BSTAR          = .42483E-3
MEAN_MOTION_DOT = .4557E-4
MEAN_MOTION_DDOT = 0

CCSDS_OMM_VERS = 2.0
CREATION_DATE  = 
ORIGINATOR     = 

OBJECT_NAME    = SHIJIAN-16 (SJ-16)
OBJECT_ID      = 2013-057A
CENTER_NAME    = EARTH
REF_FRAME      = TEME
TIME_SYSTEM    = UTC
MEAN_ELEMENT_THEORY = SGP/SGP4

EPOCH          = 2025-11-04T04:15:33.991200
MEAN_MOTION    = 14.91773459
ECCENTRICITY   = .0016102
INCLINATION    = 74.9737
RA_OF_ASC_NODE = 62.6047
ARG_OF_PERICENTER = 54.7001
MEAN_ANOMALY   = 305.5690

EPHEMERIS_TYPE = 0
CLASSIFICATION_TYPE = U
NORAD_CAT_ID   = 39358
ELEMENT_SET_NO = 999
REV_AT_EPOCH   = 65278
BSTAR          = .27395E-3
MEAN_MOTION_DOT = .274E-4
MEAN_MOTION_DDOT = 0

CCSDS_OMM_VERS = 2.0
CREATION_DATE  = 
ORIGINATOR     = 

OBJECT_NAME    = SL-4 R/B
OBJECT_ID      = 2014-021B
CENTER_NAME    = EARTH
REF_FRAME      = TEME
TIME_SYSTEM    = UTC
MEAN_ELEMENT_THEORY = SGP/SGP4

EPOCH          = 2025-11-03T04:29:08.139264
MEAN_MOTION    = 15.35154677
ECCENTRICITY   = .01049078
INCLINATION    = 51.6083
RA_OF_ASC_NODE = 232.6087
ARG_OF_PERICENTER = 3.7523
MEAN_ANOMALY   = 356.4223

EPHEMERIS_TYPE = 0
CLASSIFICATION_TYPE = U
NORAD_CAT_ID   = 39679
ELEMENT_SET_NO = 999
REV_AT_EPOCH   = 63681
BSTAR          = .43525424E-3
MEAN_MOTION_DOT = .17691E-3
MEAN_MOTION_DDOT = 0

CCSDS_OMM_VERS = 2.0
CREATION_DATE  = 
ORIGINATOR     = 

OBJECT_NAME    = ALOS-2
OBJECT_ID      = 2014-029A
CENTER_NAME    = EARTH
REF_FRAME      = TEME
TIME_SYSTEM    = UTC
MEAN_ELEMENT_THEORY = SGP/SGP4

EPOCH          = 2025-11-04T04:36:53.485344
MEAN_MOTION    = 14.79465035
ECCENTRICITY   = .0001226
INCLINATION    = 97.9238
RA_OF_ASC_NODE = 43.5865
ARG_OF_PERICENTER = 101.2419
MEAN_ANOMALY   = 258.8931

EPHEMERIS_TYPE = 0
CLASSIFICATION_TYPE = U
NORAD_CAT_ID   = 39766
ELEMENT_SET_NO = 999
REV_AT_EPOCH   = 61831
BSTAR          = .3211E-3
MEAN_MOTION_DOT = .2347E-4
MEAN_MOTION_DDOT = 0

CCSDS_OMM_VERS = 2.0
CREATION_DATE  = 
ORIGINATOR     = 

OBJECT_NAME    = YAOGAN-29
OBJECT_ID      = 2015-069A
CENTER_NAME    = EARTH
REF_FRAME      = TEME
TIME_SYSTEM    = UTC
MEAN_ELEMENT_THEORY = SGP/SGP4

EPOCH          = 2025-11-04T05:19:22.198080
MEAN_MOTION    = 14.82816284
ECCENTRICITY   = .0002581
INCLINATION    = 98.0262
RA_OF_ASC_NODE = 331.2619
ARG_OF_PERICENTER = 62.9797
MEAN_ANOMALY   = 297.1679

EPHEMERIS_TYPE = 0
CLASSIFICATION_TYPE = U
NORAD_CAT_ID   = 41038
ELEMENT_SET_NO = 999
REV_AT_EPOCH   = 53728
BSTAR          = .754E-4
MEAN_MOTION_DOT = .556E-5
MEAN_MOTION_DDOT = 0

CCSDS_OMM_VERS = 2.0
CREATION_DATE  = 
ORIGINATOR     = 

OBJECT_NAME    = ASTRO-H (HITOMI)
OBJECT_ID      = 2016-012A
CENTER_NAME    = EARTH
REF_FRAME      = TEME
TIME_SYSTEM    = UTC
MEAN_ELEMENT_THEORY = SGP/SGP4

EPOCH          = 2025-11-04T01:33:35.227584
MEAN_MOTION    = 15.08994844
ECCENTRICITY   = .0009866
INCLINATION    = 30.9990
RA_OF_ASC_NODE = 86.6255
ARG_OF_PERICENTER = 149.1267
MEAN_ANOMALY   = 210.9952

EPHEMERIS_TYPE = 0
CLASSIFICATION_TYPE = U
NORAD_CAT_ID   = 41337
ELEMENT_SET_NO = 999
REV_AT_EPOCH   = 53323
BSTAR          = .22752E-3
MEAN_MOTION_DOT = .3782E-4
MEAN_MOTION_DDOT = 0

CCSDS_OMM_VERS = 2.0
CREATION_DATE  = 
ORIGINATOR     = 

OBJECT_NAME    = HXMT (HUIYAN)
OBJECT_ID      = 2017-034A
CENTER_NAME    = EARTH
REF_FRAME      = TEME
TIME_SYSTEM    = UTC
MEAN_ELEMENT_THEORY = SGP/SGP4

EPOCH          = 2025-11-04T04:19:40.867104
MEAN_MOTION    = 15.15606686
ECCENTRICITY   = .0032573
INCLINATION    = 43.0153
RA_OF_ASC_NODE = 353.5092
ARG_OF_PERICENTER = 164.0545
MEAN_ANOMALY   = 196.1335

EPHEMERIS_TYPE = 0
CLASSIFICATION_TYPE = U
NORAD_CAT_ID   = 42758
ELEMENT_SET_NO = 999
REV_AT_EPOCH   = 46348
BSTAR          = .3701E-3
MEAN_MOTION_DOT = .7019E-4
MEAN_MOTION_DDOT = 0

CCSDS_OMM_VERS = 2.0
CREATION_DATE  = 
ORIGINATOR     = 

OBJECT_NAME    = CZ-2C R/B
OBJECT_ID      = 2018-054D
CENTER_NAME    = EARTH
REF_FRAME      = TEME
TIME_SYSTEM    = UTC
MEAN_ELEMENT_THEORY = SGP/SGP4

EPOCH          = 2025-11-04T01:39:43.989696
MEAN_MOTION    = 15.65835092
ECCENTRICITY   = .0024831
INCLINATION    = 35.1348
RA_OF_ASC_NODE = 81.4693
ARG_OF_PERICENTER = 128.5955
MEAN_ANOMALY   = 231.7004

EPHEMERIS_TYPE = 0
CLASSIFICATION_TYPE = U
NORAD_CAT_ID   = 43521
ELEMENT_SET_NO = 999
REV_AT_EPOCH   = 40897
BSTAR          = .74958E-3
MEAN_MOTION_DOT = .80834E-3
MEAN_MOTION_DDOT = 0

CCSDS_OMM_VERS = 2.0
CREATION_DATE  = 
ORIGINATOR     = 

OBJECT_NAME    = SAOCOM 1A
OBJECT_ID      = 2018-076A
CENTER_NAME    = EARTH
REF_FRAME      = TEME
TIME_SYSTEM    = UTC
MEAN_ELEMENT_THEORY = SGP/SGP4

EPOCH          = 2025-11-04T04:34:54.661152
MEAN_MOTION    = 14.82146410
ECCENTRICITY   = .0001344
INCLINATION    = 97.8872
RA_OF_ASC_NODE = 133.1709
ARG_OF_PERICENTER = 90.5900
MEAN_ANOMALY   = 269.5467

EPHEMERIS_TYPE = 0
CLASSIFICATION_TYPE = U
NORAD_CAT_ID   = 43641
ELEMENT_SET_NO = 999
REV_AT_EPOCH   = 38277
BSTAR          = .78936E-4
MEAN_MOTION_DOT = .576E-5
MEAN_MOTION_DDOT = 0

CCSDS_OMM_VERS = 2.0
CREATION_DATE  = 
ORIGINATOR     = 

OBJECT_NAME    = H-2A R/B
OBJECT_ID      = 2018-084L
CENTER_NAME    = EARTH
REF_FRAME      = TEME
TIME_SYSTEM    = UTC
MEAN_ELEMENT_THEORY = SGP/SGP4

EPOCH          = 2025-11-04T01:44:05.603712
MEAN_MOTION    = 15.35464069
ECCENTRICITY   = .0029371
INCLINATION    = 98.8803
RA_OF_ASC_NODE = 134.1961
ARG_OF_PERICENTER = 97.4020
MEAN_ANOMALY   = 263.0558

EPHEMERIS_TYPE = 0
CLASSIFICATION_TYPE = U
NORAD_CAT_ID   = 43682
ELEMENT_SET_NO = 999
REV_AT_EPOCH   = 38646
BSTAR          = .58851E-3
MEAN_MOTION_DOT = .20494E-3
MEAN_MOTION_DDOT = 0

CCSDS_OMM_VERS = 2.0
CREATION_DATE  = 
ORIGINATOR     = 

OBJECT_NAME    = SAOCOM 1B
OBJECT_ID      = 2020-059A
CENTER_NAME    = EARTH
REF_FRAME      = TEME
TIME_SYSTEM    = UTC
MEAN_ELEMENT_THEORY = SGP/SGP4

EPOCH          = 2025-11-04T03:42:42.806304
MEAN_MOTION    = 14.82148971
ECCENTRICITY   = .0001463
INCLINATION    = 97.8860
RA_OF_ASC_NODE = 132.2380
ARG_OF_PERICENTER = 89.6605
MEAN_ANOMALY   = 270.4776

EPHEMERIS_TYPE = 0
CLASSIFICATION_TYPE = U
NORAD_CAT_ID   = 46265
ELEMENT_SET_NO = 999
REV_AT_EPOCH   = 28015
BSTAR          = .80301E-4
MEAN_MOTION_DOT = .587E-5
MEAN_MOTION_DDOT = 0

CCSDS_OMM_VERS = 2.0
CREATION_DATE  = 
ORIGINATOR     = 

OBJECT_NAME    = CSS (TIANHE)
OBJECT_ID      = 2021-035A
CENTER_NAME    = EARTH
REF_FRAME      = TEME
TIME_SYSTEM    = UTC
MEAN_ELEMENT_THEORY = SGP/SGP4

EPOCH          = 2025-11-04T03:50:32.750592
MEAN_MOTION    = 15.60341380
ECCENTRICITY   = .0006377
INCLINATION    = 41.4668
RA_OF_ASC_NODE = 251.0039
ARG_OF_PERICENTER = 319.7576
MEAN_ANOMALY   = 40.2790

EPHEMERIS_TYPE = 0
CLASSIFICATION_TYPE = U
NORAD_CAT_ID   = 48274
ELEMENT_SET_NO = 999
REV_AT_EPOCH   = 25800
BSTAR          = .38953E-3
MEAN_MOTION_DOT = .32649E-3
MEAN_MOTION_DDOT = 0

