H-2A R/B                
1 38341U 12025E   25307.86762280  .00004557  00000+0  42483-3 0  9999
2 38341  98.4526 260.1266 0045821   6.0472 354.1289 14.94018662729424
SHIJIAN-16 (SJ-16)      
1 39358U 13057A   25308.17747675  .00002740  00000+0  27395-3 0  9997
2 39358  74.9737  62.6047 0016102  54.7001 305.5690 14.91773459652785
SL-4 R/B                
1 39679U 14021B   25307.18689976  .00017691  00000+0  43525-3 0  9998
2 39679  51.6083 232.6087 0104907   3.7523 356.4223 15.35154677636811
ALOS-2                  
1 39766U 14029A   25308.19228571  .00002347  00000+0  32110-3 0  9995
2 39766  97.9238  43.5865 0001226 101.2419 258.8931 14.79465035618310
YAOGAN-29               
1 41038U 15069A   25308.22178470  .00000556  00000+0  75400-4 0  9991
2 41038  98.0262 331.2619 0002581  62.9797 297.1679 14.82816284537286
ASTRO-H (HITOMI)        
1 41337U 16012A   25308.06499106  .00003782  00000+0  22752-3 0  9991
2 41337  30.9990  86.6255 0009866 149.1267 210.9952 15.08994844533237
HXMT (HUIYAN)           
1 42758U 17034A   25308.18033411  .00007019  00000+0  37010-3 0  9990
2 42758  43.0153 353.5092 0032573 164.0545 196.1335 15.15606686463483
CZ-2C R/B               
1 43521U 18054D   25308.06925914  .00080834  00000+0  74958-3 0  9995
2 43521  35.1348  81.4693 0024831 128.5955 231.7004 15.65835092408974
SAOCOM 1A               
1 43641U 18076A   25308.19091043  .00000576  00000+0  78936-4 0  9999
2 43641  97.8872 133.1709 0001344  90.5900 269.5467 14.82146410382777
H-2A R/B                
1 43682U 18084L   25308.07228708  .00020494  00000+0  58851-3 0  9994
2 43682  98.8803 134.1961 0029371  97.4020 263.0558 15.35464069386469
SAOCOM 1B               
1 46265U 20059A   25308.15466211  .00000587  00000+0  80301-4 0  9998
2 46265  97.8860 132.2380 0001463  89.6605 270.4776 14.82148971280154
CSS (TIANHE)            
1 48274U 21035A   25308.16010128  .00032649  00000+0  38953-3 0  9997
2 48274  41.4668 251.0039 0006377 319.7576  40.2790 15.60341380258005
